[
  {
    "url": "https://en.wikipedia.org/wiki/undefined",
    "name": "",
    "callingCode": ""
  },
  {
    "url": "https://en.wikipedia.org/wiki/Algeria",
    "name": "Algeria",
    "callingCode": "+213"
  },
  {
    "url": "https://en.wikipedia.org/wiki/Angola",
    "name": "Angola",
    "callingCode": "+244"
  },
  {
    "url": "https://en.wikipedia.org/wiki/Benin",
    "name": "Benin",
    "callingCode": "+229"
  },
  {
    "url": "https://en.wikipedia.org/wiki/Botswana",
    "name": "Botswana",
    "callingCode": "+267"
  },
  {
    "url": "https://en.wikipedia.org/wiki/Burkina_Faso",
    "name": "Burkina Faso",
    "callingCode": "+226"
  },
  {
    "url": "https://en.wikipedia.org/wiki/Burundi",
    "name": "Burundi",
    "callingCode": "+257"
  },
  {
    "url": "https://en.wikipedia.org/wiki/Cameroon",
    "name": "Cameroon",
    "callingCode": "+237"
  },
  {
    "url": "https://en.wikipedia.org/wiki/Cape_Verde",
    "name": "Cape Verde",
    "callingCode": "+238"
  },
  {
    "url": "https://en.wikipedia.org/wiki/Central_African_Republic",
    "name": "Central African Republic",
    "callingCode": "+236"
  },
  {
    "url": "https://en.wikipedia.org/wiki/Chad",
    "name": "Chad",
    "callingCode": "+235"
  },
  {
    "url": "https://en.wikipedia.org/wiki/Comoros",
    "name": "Comoros",
    "callingCode": "+269"
  },
  {
    "url": "https://en.wikipedia.org/wiki/Democratic_Republic_of_the_Congo",
    "name": "Democratic Republic of the Congo[n 1]",
    "callingCode": "+243"
  },
  {
    "url": "https://en.wikipedia.org/wiki/Republic_of_the_Congo",
    "name": "Republic of the Congo[n 2]",
    "callingCode": "+242"
  },
  {
    "url": "https://en.wikipedia.org/wiki/Djibouti",
    "name": "Djibouti",
    "callingCode": "+253"
  },
  {
    "url": "https://en.wikipedia.org/wiki/Egypt",
    "name": "Egypt[n 3]",
    "callingCode": "+20"
  },
  {
    "url": "https://en.wikipedia.org/wiki/Equatorial_Guinea",
    "name": "Equatorial Guinea",
    "callingCode": "+240"
  },
  {
    "url": "https://en.wikipedia.org/wiki/Eritrea",
    "name": "Eritrea",
    "callingCode": "+291"
  },
  {
    "url": "https://en.wikipedia.org/wiki/Eswatini",
    "name": "Eswatini",
    "callingCode": "+268"
  },
  {
    "url": "https://en.wikipedia.org/wiki/Ethiopia",
    "name": "Ethiopia",
    "callingCode": "+251"
  },
  {
    "url": "https://en.wikipedia.org/wiki/Gabon",
    "name": "Gabon",
    "callingCode": "+241"
  },
  {
    "url": "https://en.wikipedia.org/wiki/The_Gambia",
    "name": "The Gambia",
    "callingCode": "+220"
  },
  {
    "url": "https://en.wikipedia.org/wiki/Ghana",
    "name": "Ghana",
    "callingCode": "+233"
  },
  {
    "url": "https://en.wikipedia.org/wiki/Guinea",
    "name": "Guinea[n 5]",
    "callingCode": "+224"
  },
  {
    "url": "https://en.wikipedia.org/wiki/Guinea-Bissau",
    "name": "Guinea-Bissau",
    "callingCode": "+245"
  },
  {
    "url": "https://en.wikipedia.org/wiki/Ivory_Coast",
    "name": "Ivory Coast",
    "callingCode": "+225"
  },
  {
    "url": "https://en.wikipedia.org/wiki/Kenya",
    "name": "Kenya",
    "callingCode": "+254"
  },
  {
    "url": "https://en.wikipedia.org/wiki/Lesotho",
    "name": "Lesotho",
    "callingCode": "+266"
  },
  {
    "url": "https://en.wikipedia.org/wiki/Liberia",
    "name": "Liberia",
    "callingCode": "+231"
  },
  {
    "url": "https://en.wikipedia.org/wiki/Libya",
    "name": "Libya",
    "callingCode": "+218"
  },
  {
    "url": "https://en.wikipedia.org/wiki/Madagascar",
    "name": "Madagascar",
    "callingCode": "+261[14]"
  },
  {
    "url": "https://en.wikipedia.org/wiki/Malawi",
    "name": "Malawi",
    "callingCode": "+265[8]"
  },
  {
    "url": "https://en.wikipedia.org/wiki/Mali",
    "name": "Mali",
    "callingCode": "+223"
  },
  {
    "url": "https://en.wikipedia.org/wiki/Mauritania",
    "name": "Mauritania",
    "callingCode": "+222"
  },
  {
    "url": "https://en.wikipedia.org/wiki/Mauritius",
    "name": "Mauritius",
    "callingCode": "+230"
  },
  {
    "url": "https://en.wikipedia.org/wiki/Morocco",
    "name": "Morocco",
    "callingCode": "+212"
  },
  {
    "url": "https://en.wikipedia.org/wiki/Mozambique",
    "name": "Mozambique",
    "callingCode": "+258"
  },
  {
    "url": "https://en.wikipedia.org/wiki/Namibia",
    "name": "Namibia",
    "callingCode": "+264"
  },
  {
    "url": "https://en.wikipedia.org/wiki/Niger",
    "name": "Niger",
    "callingCode": "+227"
  },
  {
    "url": "https://en.wikipedia.org/wiki/Nigeria",
    "name": "Nigeria",
    "callingCode": "+234"
  },
  {
    "url": "https://en.wikipedia.org/wiki/Rwanda",
    "name": "Rwanda",
    "callingCode": "+250"
  },
  {
    "url": "https://en.wikipedia.org/wiki/S%C3%A3o_Tom%C3%A9_and_Pr%C3%ADncipe",
    "name": "São Tomé and Príncipe",
    "callingCode": "+239"
  },
  {
    "url": "https://en.wikipedia.org/wiki/Senegal",
    "name": "Senegal",
    "callingCode": "+221"
  },
  {
    "url": "https://en.wikipedia.org/wiki/Seychelles",
    "name": "Seychelles",
    "callingCode": "+248"
  },
  {
    "url": "https://en.wikipedia.org/wiki/Sierra_Leone",
    "name": "Sierra Leone",
    "callingCode": "+232"
  },
  {
    "url": "https://en.wikipedia.org/wiki/Somalia",
    "name": "Somalia",
    "callingCode": "+252"
  },
  {
    "url": "https://en.wikipedia.org/wiki/South_Africa",
    "name": "South Africa",
    "callingCode": "+27"
  },
  {
    "url": "https://en.wikipedia.org/wiki/South_Sudan",
    "name": "South Sudan",
    "callingCode": "+211[13]"
  },
  {
    "url": "https://en.wikipedia.org/wiki/Sudan",
    "name": "Sudan",
    "callingCode": "+249"
  },
  {
    "url": "https://en.wikipedia.org/wiki/Tanzania",
    "name": "Tanzania",
    "callingCode": "+255[b]"
  },
  {
    "url": "https://en.wikipedia.org/wiki/Togo",
    "name": "Togo",
    "callingCode": "+228"
  },
  {
    "url": "https://en.wikipedia.org/wiki/Tunisia",
    "name": "Tunisia",
    "callingCode": "+216"
  },
  {
    "url": "https://en.wikipedia.org/wiki/Uganda",
    "name": "Uganda",
    "callingCode": "+256"
  },
  {
    "url": "https://en.wikipedia.org/wiki/Zambia",
    "name": "Zambia",
    "callingCode": "+260"
  },
  {
    "url": "https://en.wikipedia.org/wiki/Zimbabwe",
    "name": "Zimbabwe",
    "callingCode": "+263"
  }
]